GLOBALSTAR M023         
1 25621U 99004A   25197.63858297 -.00000185  00000+0 -44902-3 0  9997
2 25621  52.0131 323.7619 0010142 186.8360 186.8091 12.62504160219452
GLOBALSTAR M040         
1 25622U 99004B   25197.81711044 -.00000078  00000+0  14194-3 0  9996
2 25622  51.9938 327.4175 0001624 104.9020  59.6464 12.62012834218994
GLOBALSTAR M036         
1 25623U 99004C   25198.20794689 -.00000064  00000+0  28102-3 0  9996
2 25623  51.9944 161.1921 0011069 107.1563 354.5990 11.86608366182521
GLOBALSTAR M038         
1 25624U 99004D   25197.79627277 -.00000076  00000+0  15382-3 0  9997
2 25624  51.9995 346.3014 0002669 111.8908  35.5350 12.32529177206021
GLOBALSTAR M022         
1 25649U 99012A   25197.77417787 -.00000068  00000+0  22921-3 0  9992
2 25649  52.0007 210.4714 0002671 233.2594 297.9610 12.02501710179937
GLOBALSTAR M041         
1 25650U 99012B   25197.87013926 -.00000101  00000+0 -20062-3 0  9995
2 25650  52.0023  92.5676 0002095  25.8359 334.2582 11.96681847182071
GLOBALSTAR M046         
1 25651U 99012C   25197.84313558 -.00000082  00000+0  74358-4 0  9992
2 25651  52.0031 159.3337 0002318 319.4896  74.8690 12.09409841187252
GLOBALSTAR M037         
1 25652U 99012D   25197.87043988 -.00000039  00000+0  36129-3 0  9998
2 25652  52.0006  93.6644 0001397 265.2778 172.7897 12.62448595215021
